IRIDIUM 63              
1 25286U 98021B   25138.92399127  .00000507  00000+0  16599-3 0  9998
2 25286  86.3958  94.4081 0002370  82.8961 277.2505 14.36523988419647
IRIDIUM 69              
1 25319U 98026A   25138.88741495  .00000529  00000+0  15868-3 0  9996
2 25319  86.3947 107.8046 0004486 104.0690 256.1009 14.40939896419085
IRIDIUM 71              
1 25320U 98026B   25139.17588436  .00000517  00000+0  15428-3 0  9994
2 25320  86.3948 102.3772 0003025 132.1598 227.9859 14.41134993419660
IRIDIUM 73              
1 25344U 98032C   25138.83596630  .00000742  00000+0  17987-3 0  9996
2 25344  86.4423  59.2801 0003002  87.1222 273.0327 14.51683936426304
IRIDIUM 82              
1 25467U 98051A   25138.69191004  .00033739  00000+0  99600-3 0  9997
2 25467  86.3659 124.2262 0090206  50.4828 310.4350 15.30783088419447
